NORAD_CAT_ID,OBJECT_NAME,OBJECT_TYPE,EPOCH,MEAN_MOTION,ECCENTRICITY,INCLINATION,RA_OF_ASC_NODE,ARG_OF_PERICENTER,MEAN_ANOMALY,BSTAR,MEAN_MOTION_DOT,MEAN_MOTION_DDOT,TLE_LINE0,TLE_LINE1,TLE_LINE2,SEMIMAJOR_AXIS,PERIOD,APOGEE,PERIGEE,DECAYED
53910.0,STARLINK-5056,PAYLOAD,2023-10-01 11:41:35,15.08850385,0.0001811,53.2183,350.4576,101.2566,258.863,6.2426e-05,7.06e-06,0.0,0 STARLINK-5056,1 53910U 22119AA  23274.48721821  .00000706  00000-0  62426-4 0  9991,2 53910  53.2183 350.4576 0001811 101.2566 258.8630 15.08850385 57438,6917.849,95.437,540.966,538.461,0.0
53910.0,STARLINK-5056,PAYLOAD,2023-10-02 11:32:25,15.08802995,0.0001598,53.2178,345.9974,86.0455,274.072,-0.00038456,-6.397e-05,0.0,0 STARLINK-5056,1 53910U 22119AA  23275.48085132 -.00006397  00000-0 -38456-3 0  9999,2 53910  53.2178 345.9974 0001598  86.0455 274.0720 15.08802995 57166,6917.994,95.44,540.964,538.753,0.0
53910.0,STARLINK-5056,PAYLOAD,2023-10-03 05:01:39,15.08833201,0.0001372,53.2183,342.7279,89.0646,271.0503,0.00045389,6.942e-05,0.0,0 STARLINK-5056,1 53910U 22119AA  23276.20948967  .00006942  00000-0  45389-3 0  9991,2 53910  53.2183 342.7279 0001372  89.0646 271.0503 15.08833201 57272,6917.901,95.438,540.715,538.817,0.0
53910.0,STARLINK-5056,PAYLOAD,2023-10-03 11:23:11,15.08859416,0.0001613,53.2169,341.5376,83.5655,276.552,0.00087873,0.00013732,0.0,0 STARLINK-5056,1 53910U 22119AA  23276.47444063  .00013732  00000-0  87873-3 0  9997,2 53910  53.2169 341.5376 0001613  83.5655 276.5520 15.08859416 57318,6917.821,95.436,540.802,538.57,0.0
53910.0,STARLINK-5056,PAYLOAD,2023-10-04 04:52:26,15.088514,0.00017,53.218,338.2671,77.1589,282.9593,0.00057915,8.944e-05,0.0,0 STARLINK-5056,1 53910U 22119AA  23277.20308378  .00008944  00000-0  57915-3 0  9990,2 53910  53.2180 338.2671 0001700  77.1589 282.9593 15.08851400 57422,6917.846,95.437,540.887,538.535,0.0
53910.0,STARLINK-5056,PAYLOAD,2023-10-04 11:13:58,15.08861284,0.0001572,53.2179,337.0786,87.7091,272.4081,0.00056169,8.668e-05,0.0,0 STARLINK-5056,1 53910U 22119AA  23277.46803883  .00008668  00000-0  56169-3 0  9992,2 53910  53.2179 337.0786 0001572  87.7091 272.4081 15.08861284 57883,6917.815,95.436,540.768,538.593,0.0
53910.0,STARLINK-5056,PAYLOAD,2023-10-04 20:46:16,15.0885782,0.0001417,53.2172,335.2952,89.0897,271.0258,-5.0657e-06,-3.69e-06,0.0,0 STARLINK-5056,1 53910U 22119AA  23277.86547288 -.00000369  00000-0 -50657-5 0  9990,2 53910  53.2172 335.2952 0001417  89.0897 271.0258 15.08857820 57947,6917.826,95.436,540.671,538.711,0.0
53910.0,STARLINK-5056,PAYLOAD,2023-10-05 03:07:49,15.0884967,0.0002059,53.2168,334.1043,88.349,271.7738,-0.00018236,-3.19e-05,0.0,0 STARLINK-5056,1 53910U 22119AA  23278.13043202 -.00003190  00000-0 -18236-3 0  9998,2 53910  53.2168 334.1043 0002059  88.3490 271.7738 15.08849670 57567,6917.851,95.437,541.14,538.291,0.0
53910.0,STARLINK-5056,PAYLOAD,2023-10-05 11:04:45,15.08851066,0.0001967,53.2194,332.619,92.3311,267.7906,-6.7479e-05,-1.362e-05,0.0,0 STARLINK-5056,1 53910U 22119AA  23278.46163264 -.00001362  00000-0 -67479-4 0  9998,2 53910  53.2194 332.6190 0001967  92.3311 267.7906 15.08851066 58033,6917.847,95.437,541.072,538.351,0.0
53910.0,STARLINK-5056,PAYLOAD,2023-10-05 20:37:03,15.08848076,0.0001869,53.2179,330.8344,85.1101,275.0104,1.1513e-05,-1.05e-06,0.0,0 STARLINK-5056,1 53910U 22119AA  23278.85907155 -.00000105  00000-0  11513-4 0  9997,2 53910  53.2179 330.8344 0001869  85.1101 275.0104 15.08848076 58090,6917.856,95.437,541.014,538.428,0.0
53910.0,STARLINK-5056,PAYLOAD,2023-10-06 02:58:36,15.08841973,0.0002023,53.2188,329.6467,87.8371,272.2853,2.5631e-05,1.2e-06,0.0,0 STARLINK-5056,1 53910U 22119AA  23279.12403574  .00000120  00000-0  25631-4 0  9996,2 53910  53.2188 329.6467 0002023  87.8371 272.2853 15.08841973 57710,6917.874,95.437,541.139,538.34,0.0
53910.0,STARLINK-5056,PAYLOAD,2023-10-06 12:30:55,15.08842841,0.0001727,53.218,327.8591,89.4399,270.6791,0.00010564,1.394e-05,0.0,0 STARLINK-5056,1 53910U 22119AA  23279.52147610  .00001394  00000-0  10564-3 0  9998,2 53910  53.2180 327.8591 0001727  89.4399 270.6791 15.08842841 58199,6917.872,95.437,540.931,538.542,0.0
53910.0,STARLINK-5056,PAYLOAD,2023-10-06 20:27:51,15.08839054,0.0001542,53.2171,326.3719,95.3068,264.81,0.00020692,3.007e-05,0.0,0 STARLINK-5056,1 53910U 22119AA  23279.85267837  .00003007  00000-0  20692-3 0  9994,2 53910  53.2171 326.3719 0001542  95.3068 264.8100 15.08839054 58246,6917.883,95.438,540.815,538.682,0.0
53910.0,STARLINK-5056,PAYLOAD,2023-10-07 10:46:19,15.08849152,0.0001651,53.217,323.6967,92.6197,267.4984,0.00038477,5.842e-05,0.0,0 STARLINK-5056,1 53910U 22119AA  23280.44883654  .00005842  00000-0  38477-3 0  9991,2 53910  53.2170 323.6967 0001651  92.6197 267.4984 15.08849152 57916,6917.852,95.437,540.86,538.575,0.0
53910.0,STARLINK-5056,PAYLOAD,2023-10-07 12:21:42,15.08853962,0.0001648,53.2168,323.3985,94.612,265.506,0.00051134,7.862e-05,0.0,0 STARLINK-5056,1 53910U 22119AA  23280.51507504  .00007862  00000-0  51134-3 0  9995,2 53910  53.2168 323.3985 0001648  94.6120 265.5060 15.08853962 58340,6917.838,95.437,540.843,538.563,0.0
53910.0,STARLINK-5056,PAYLOAD,2023-10-08 02:40:11,15.08840029,0.000174,53.2178,320.7227,89.5933,270.5259,0.00020804,3.024e-05,0.0,0 STARLINK-5056,1 53910U 22119AA  23281.11124175  .00003024  00000-0  20804-3 0  9997,2 53910  53.2178 320.7227 0001740  89.5933 270.5259 15.08840029 58019,6917.88,95.438,540.949,538.542,0.0
53910.0,STARLINK-5056,PAYLOAD,2023-10-08 12:12:29,15.08847808,0.0001726,53.217,318.9375,88.0873,272.0317,0.00044807,6.852e-05,0.0,0 STARLINK-5056,1 53910U 22119AA  23281.50868055  .00006852  00000-0  44807-3 0  9993,2 53910  53.2170 318.9375 0001726  88.0873 272.0317 15.08847808 58491,6917.857,95.437,540.916,538.528,0.0
53910.0,STARLINK-5056,PAYLOAD,2023-10-08 20:09:25,15.0884288,0.0001777,53.2174,317.4493,92.9073,267.2122,0.00031481,4.726e-05,0.0,0 STARLINK-5056,1 53910U 22119AA  23281.83988181  .00004726  00000-0  31481-3 0  9994,2 53910  53.2174 317.4493 0001777  92.9073 267.2122 15.08842880 58543,6917.872,95.437,540.966,538.507,0.0
53910.0,STARLINK-5056,PAYLOAD,2023-10-09 08:52:30,15.08852785,0.0001753,53.2175,315.0719,90.7329,269.3864,0.00042696,6.516e-05,0.0,0 STARLINK-5056,1 53910U 22119AA  23282.36979733  .00006516  00000-0  42696-3 0  9995,2 53910  53.2175 315.0719 0001753  90.7329 269.3864 15.08852785 58207,6917.841,95.437,540.919,538.494,0.0
53910.0,STARLINK-5056,PAYLOAD,2023-10-10 02:21:45,15.08843605,0.0001792,53.2171,311.8011,94.6627,265.457,8.8475e-05,1.12e-05,0.0,0 STARLINK-5056,1 53910U 22119AA  23283.09843931  .00001120  00000-0  88475-4 0  9998,2 53910  53.2171 311.8011 0001792  94.6627 265.4570 15.08843605 58313,6917.869,95.437,540.974,538.495,0.0
53910.0,STARLINK-5056,PAYLOAD,2023-10-10 11:54:03,15.08848525,0.0001765,53.2174,310.0152,95.0649,265.0544,0.00014297,1.989e-05,0.0,0 STARLINK-5056,1 53910U 22119AA  23283.49587652  .00001989  00000-0  14297-3 0  9990,2 53910  53.2174 310.0152 0001765  95.0649 265.0544 15.08848525 58797,6917.854,95.437,540.94,538.498,0.0
53910.0,STARLINK-5056,PAYLOAD,2023-10-11 02:12:32,15.08832829,0.0001788,53.2174,307.3412,95.442,264.6776,-7.0241e-05,-1.406e-05,0.0,0 STARLINK-5056,1 53910U 22119AA  23284.09204562 -.00001406  00000-0 -70241-4 0  9991,2 53910  53.2174 307.3412 0001788  95.4420 264.6776 15.08832829 58467,6917.902,95.438,541.004,538.53,0.0
53910.0,STARLINK-5056,PAYLOAD,2023-10-11 11:44:51,15.08836811,0.000166,53.2168,305.5571,89.229,270.8892,8.3297e-06,-1.55e-06,0.0,0 STARLINK-5056,1 53910U 22119AA  23284.48948561 -.00000155  00000-0  83297-5 0  9993,2 53910  53.2168 305.5571 0001660  89.2290 270.8892 15.08836811 58947,6917.89,95.438,540.904,538.607,0.0
53910.0,STARLINK-5056,PAYLOAD,2023-10-12 08:24:52,15.08848693,0.0001613,53.2161,301.6919,94.0339,266.0837,0.00034877,5.268e-05,0.0,0 STARLINK-5056,1 53910U 22119AA  23285.35060372  .00005268  00000-0  34877-3 0  9992,2 53910  53.2161 301.6919 0001613  94.0339 266.0837 15.08848693 58654,6917.854,95.437,540.835,538.603,0.0
53910.0,STARLINK-5056,PAYLOAD,2023-10-12 11:35:38,15.08851953,0.0001615,53.216,301.0971,92.3787,267.739,0.00042014,6.407e-05,0.0,0 STARLINK-5056,1 53910U 22119AA  23285.48308266  .00006407  00000-0  42014-3 0  9991,2 53910  53.2160 301.0971 0001615  92.3787 267.7390 15.08851953 59099,6917.844,95.437,540.826,538.592,0.0
53910.0,STARLINK-5056,PAYLOAD,2023-10-12 17:57:11,15.08836685,0.0002358,53.2168,299.9068,93.5844,266.5418,0.00020165,2.922e-05,0.0,0 STARLINK-5056,1 53910U 22119AA  23285.74804979  .00002922  00000-0  20165-3 0  9993,2 53910  53.2168 299.9068 0002358  93.5844 266.5418 15.08836685 58712,6917.891,95.438,541.387,538.124,0.0
53910.0,STARLINK-5056,PAYLOAD,2023-10-13 08:15:39,15.08845814,0.0002106,53.2182,297.2299,93.924,266.1993,0.0002272,3.33e-05,0.0,0 STARLINK-5056,1 53910U 22119AA  23286.34420627  .00003330  00000-0  22720-3 0  9997,2 53910  53.2182 297.2299 0002106  93.9240 266.1993 15.08845814 59225,6917.863,95.437,541.185,538.271,0.0
53910.0,STARLINK-5056,PAYLOAD,2023-10-13 17:47:58,15.08848951,0.0002059,53.2177,295.446,89.1106,271.0122,0.00025735,3.811e-05,0.0,0 STARLINK-5056,1 53910U 22119AA  23286.74164477  .00003811  00000-0  25735-3 0  9992,2 53910  53.2177 295.4460 0002059  89.1106 271.0122 15.08848951 59284,6917.853,95.437,541.142,538.294,0.0
53910.0,STARLINK-5056,PAYLOAD,2023-10-14 09:41:49,15.0884628,0.0002017,53.2176,292.4718,90.0916,270.0308,0.00012683,1.731e-05,0.0,0 STARLINK-5056,1 53910U 22119AA  23287.40404377  .00001731  00000-0  12683-3 0  9999,2 53910  53.2176 292.4718 0002017  90.0916 270.0308 15.08846280 58962,6917.861,95.437,541.122,538.331,0.0
53910.0,STARLINK-5056,PAYLOAD,2023-10-14 17:38:45,15.0884006,0.0001924,53.2178,290.9863,88.3233,271.798,-5.1036e-05,-1.1e-05,0.0,0 STARLINK-5056,1 53910U 22119AA  23287.73524760 -.00001100  00000-0 -51036-4 0  9992,2 53910  53.2178 290.9863 0001924  88.3233 271.7980 15.08840060 59017,6917.88,95.438,541.076,538.414,0.0
